OBJECT_NAME,OBJECT_ID,EPOCH,MEAN_MOTION,ECCENTRICITY,INCLINATION,RA_OF_ASC_NODE,ARG_OF_PERICENTER,MEAN_ANOMALY,EPHEMERIS_TYPE,CLASSIFICATION_TYPE,NORAD_CAT_ID,ELEMENT_SET_NO,REV_AT_EPOCH,BSTAR,MEAN_MOTION_DOT,MEAN_MOTION_DDOT
ONEWEB-0211,2021-045A,2026-07-01T22:31:52.504032,13.16196529,.0002415,87.9000,256.1401,114.9196,245.2186,0,U,48767,999,24638,-.18884336E-3,-.59E-6,0
ONEWEB-0223,2021-045B,2026-07-01T15:27:35.241696,13.15548753,.00020654,87.9004,256.3109,112.6684,247.4665,0,U,48768,999,24630,.11435081E-3,.56E-6,0
ONEWEB-0230,2021-045C,2026-07-01T22:04:36.553728,13.15547833,.00019401,87.8996,256.2685,94.9950,265.1401,0,U,48769,999,24660,-.4441981E-3,-.154E-5,0
ONEWEB-0237,2021-045D,2026-07-01T21:48:37.844640,13.15547300,.00023578,87.8996,256.2725,102.5965,257.5429,0,U,48770,999,24632,.30732074E-3,.129E-5,0
ONEWEB-0235,2021-045E,2026-07-01T15:43:33.722688,13.15549786,.00019,87.9006,256.3099,111.7198,248.4135,0,U,48771,999,24628,.29371718E-3,.123E-5,0
ONEWEB-0242,2021-045F,2026-07-01T15:34:26.282784,13.15547935,.00018551,87.9005,256.3085,102.7854,257.3484,0,U,48772,999,24632,.2181466E-3,.95E-6,0
ONEWEB-0241,2021-045G,2026-07-01T22:34:15.792384,13.15549634,.00022122,87.8993,256.2672,110.0408,250.0960,0,U,48773,999,24627,-.21315263E-3,-.67E-6,0
ONEWEB-0243,2021-045H,2026-07-01T21:30:23.376960,13.15558411,.00013007,87.8986,256.2880,104.4099,255.7175,0,U,48774,999,24629,-.40634941E-2,-.1517E-4,0
ONEWEB-0222,2021-045J,2026-07-01T15:37:50.448576,13.15550029,.00020485,87.9004,256.3057,105.9281,254.2075,0,U,48775,999,24630,.38277161E-3,.157E-5,0
ONEWEB-0244,2021-045K,2026-07-01T21:44:04.335072,13.15547624,.00019368,87.9011,256.2506,102.9964,257.1383,0,U,48776,999,24690,-.24464524E-3,-.79E-6,0
ONEWEB-0247,2021-045L,2026-07-01T21:39:30.896352,13.15547970,.00015659,87.8994,256.2814,121.9005,238.2278,0,U,48777,999,24634,.19606109E-3,.87E-6,0
ONEWEB-0245,2021-045M,2026-07-01T21:32:39.742080,13.15548387,.00021164,87.9003,256.2629,103.8383,256.2983,0,U,48778,999,24631,.3353988E-3,.139E-5,0
ONEWEB-0229,2021-045N,2026-07-01T21:25:48.768384,13.15548073,.00018969,87.9008,256.2616,100.8646,259.2698,0,U,48779,999,24634,-.33188004E-4,0,0
ONEWEB-0228,2021-045P,2026-07-01T22:13:56.150976,13.15547500,.0001999,87.9011,256.2485,102.2556,257.8798,0,U,48780,999,24626,-.20774609E-3,-.65E-6,0
ONEWEB-0232,2021-045Q,2026-07-01T21:37:13.682784,13.15547770,.00021089,87.9009,256.2541,100.4947,259.6421,0,U,48781,999,24658,.4180258E-3,.17E-5,0
ONEWEB-0231,2021-045R,2026-07-01T15:36:42.310944,13.15548114,.00019721,87.9003,256.3163,106.5254,253.6093,0,U,48782,999,24624,.25191984E-3,.108E-5,0
ONEWEB-0234,2021-045S,2026-07-01T21:59:50.225856,13.15548012,.00028596,87.9004,256.2451,97.5574,262.5881,0,U,48783,999,24641,-.35866555E-3,-.122E-5,0
ONEWEB-0238,2021-045T,2026-07-01T22:00:13.267872,13.15561062,.0002628,87.9014,256.2418,98.6820,261.4609,0,U,48784,999,24631,.33343205E-2,.1268E-4,0
ONEWEB-0240,2021-045U,2026-07-01T22:30:50.852448,13.15548595,.00021649,87.9007,256.2462,108.3148,251.8218,0,U,48785,999,24634,.20972233E-3,.92E-6,0
ONEWEB-0246,2021-045V,2026-07-01T22:22:51.054240,13.15548099,.00018935,87.9005,256.2514,101.2935,258.8408,0,U,48786,999,24621,-.41435538E-3,-.143E-5,0
ONEWEB-0210,2021-045W,2026-07-01T14:28:15.340512,13.15547510,.00012756,87.9009,256.3142,116.5648,243.5613,0,U,48787,999,24621,.2202474E-3,.96E-6,0
ONEWEB-0214,2021-045X,2026-07-01T21:58:52.915872,13.15549461,.00016917,87.9007,256.2489,95.7112,264.4212,0,U,48788,999,24622,-.21639283E-3,-.69E-6,0
ONEWEB-0221,2021-045Y,2026-07-01T22:09:10.408896,13.15547407,.00019948,87.9006,256.2561,105.3092,254.8259,0,U,48789,999,24631,-.73424361E-3,-.264E-5,0
ONEWEB-0213,2021-045Z,2026-07-01T21:53:12.082560,13.15548544,.00018814,87.9006,256.2609,106.5704,253.5633,0,U,48790,999,24637,-.61488318E-4,-.1E-6,0
ONEWEB-0212,2021-045AA,2026-07-01T10:22:56.703072,13.15548493,.00020556,87.9006,256.3508,99.8871,260.2492,0,U,48791,999,24630,.61638443E-4,.36E-6,0
ONEWEB-0227,2021-045AB,2026-07-01T10:21:49.942656,13.15548163,.00020275,87.9000,256.3514,102.1174,258.0184,0,U,48792,999,24625,.12015232E-3,.58E-6,0
ONEWEB-0226,2021-045AC,2026-07-01T15:41:16.046880,13.15547355,.00017666,87.9001,256.3115,102.7060,257.4268,0,U,48793,999,24625,.50213244E-3,.202E-5,0
ONEWEB-0224,2021-045AD,2026-07-01T22:06:53.718912,13.15547572,.00028306,87.8997,256.2920,110.1559,249.9876,0,U,48794,999,24621,-.3515661E-3,-.12E-5,0
ONEWEB-0233,2021-045AE,2026-07-01T22:13:31.996992,13.15548135,.00020552,87.8996,256.2984,108.3398,251.7956,0,U,48795,999,24623,-.68323159E-3,-.244E-5,0
ONEWEB-0190,2021-045AF,2026-07-01T21:55:28.871904,13.15548035,.00017994,87.9003,256.2635,119.8690,240.2619,0,U,48796,999,24630,.6774705E-4,.38E-6,0
