ONEWEB-0211             
1 48767U 21045A   26182.93880213 -.00000059  00000+0 -18884-3 0  9994
2 48767  87.9000 256.1401 0002415 114.9196 245.2186 13.16196529246384
ONEWEB-0223             
1 48768U 21045B   26182.64415789  .00000056  00000+0  11435-3 0  9995
2 48768  87.9004 256.3109 0002065 112.6684 247.4665 13.15548753246301
ONEWEB-0230             
1 48769U 21045C   26182.91986752 -.00000154  00000+0 -44420-3 0  9990
2 48769  87.8996 256.2685 0001940  94.9950 265.1401 13.15547833246604
ONEWEB-0237             
1 48770U 21045D   26182.90877135  .00000129  00000+0  30732-3 0  9996
2 48770  87.8996 256.2725 0002357 102.5965 257.5429 13.15547300246329
ONEWEB-0235             
1 48771U 21045E   26182.65525142  .00000123  00000+0  29372-3 0  9999
2 48771  87.9006 256.3099 0001900 111.7198 248.4135 13.15549786246289
ONEWEB-0242             
1 48772U 21045F   26182.64891531  .00000095  00000+0  21815-3 0  9999
2 48772  87.9005 256.3085 0001855 102.7854 257.3484 13.15547935246327
ONEWEB-0241             
1 48773U 21045G   26182.94046056 -.00000067  00000+0 -21315-3 0  9993
2 48773  87.8993 256.2672 0002212 110.0408 250.0960 13.15549634246270
ONEWEB-0243             
1 48774U 21045H   26182.89610390 -.00001517  00000+0 -40635-2 0  9992
2 48774  87.8986 256.2880 0001300 104.4099 255.7175 13.15558411246299
ONEWEB-0222             
1 48775U 21045J   26182.65127834  .00000157  00000+0  38277-3 0  9990
2 48775  87.9004 256.3057 0002048 105.9281 254.2075 13.15550029246300
ONEWEB-0244             
1 48776U 21045K   26182.90560573 -.00000079  00000+0 -24465-3 0  9999
2 48776  87.9011 256.2506 0001936 102.9964 257.1383 13.15547624246904
ONEWEB-0247             
1 48777U 21045L   26182.90244093  .00000087  00000+0  19606-3 0  9994
2 48777  87.8994 256.2814 0001565 121.9005 238.2278 13.15547970246346
ONEWEB-0245             
1 48778U 21045M   26182.89768220  .00000139  00000+0  33540-3 0  9997
2 48778  87.9003 256.2629 0002116 103.8383 256.2983 13.15548387246317
ONEWEB-0229             
1 48779U 21045N   26182.89292556  .00000000  00000+0 -33188-4 0  9999
2 48779  87.9008 256.2616 0001896 100.8646 259.2698 13.15548073246343
ONEWEB-0228             
1 48780U 21045P   26182.92634434 -.00000065  00000+0 -20775-3 0  9999
2 48780  87.9011 256.2485 0001999 102.2556 257.8798 13.15547500246263
ONEWEB-0232             
1 48781U 21045Q   26182.90085281  .00000170  00000+0  41803-3 0  9998
2 48781  87.9009 256.2541 0002108 100.4947 259.6421 13.15547770246588
ONEWEB-0231             
1 48782U 21045R   26182.65048971  .00000108  00000+0  25192-3 0  9990
2 48782  87.9003 256.3163 0001972 106.5254 253.6093 13.15548114246245
ONEWEB-0234             
1 48783U 21045S   26182.91655354 -.00000122  00000+0 -35867-3 0  9997
2 48783  87.9004 256.2451 0002859  97.5574 262.5881 13.15548012246415
ONEWEB-0238             
1 48784U 21045T   26182.91682023  .00001268  00000+0  33343-2 0  9997
2 48784  87.9014 256.2418 0002628  98.6820 261.4609 13.15561062246315
ONEWEB-0240             
1 48785U 21045U   26182.93808857  .00000092  00000+0  20972-3 0  9994
2 48785  87.9007 256.2462 0002164 108.3148 251.8218 13.15548595246342
ONEWEB-0246             
1 48786U 21045V   26182.93253535 -.00000143  00000+0 -41436-3 0  9999
2 48786  87.9005 256.2514 0001893 101.2935 258.8408 13.15548099246216
ONEWEB-0210             
1 48787U 21045W   26182.60295533  .00000096  00000+0  22025-3 0  9996
2 48787  87.9009 256.3142 0001275 116.5648 243.5613 13.15547510246219
ONEWEB-0214             
1 48788U 21045X   26182.91589023 -.00000069  00000+0 -21639-3 0  9993
2 48788  87.9007 256.2489 0001691  95.7112 264.4212 13.15549461246222
ONEWEB-0221             
1 48789U 21045Y   26182.92303714 -.00000264  00000+0 -73424-3 0  9992
2 48789  87.9006 256.2561 0001994 105.3092 254.8259 13.15547407246316
ONEWEB-0213             
1 48790U 21045Z   26182.91194540 -.00000010  00000+0 -61488-4 0  9995
2 48790  87.9006 256.2609 0001881 106.5704 253.5633 13.15548544246370
ONEWEB-0212             
1 48791U 21045AA  26182.43260073  .00000036  00000+0  61638-4 0  9991
2 48791  87.9006 256.3508 0002055  99.8871 260.2492 13.15548493246307
ONEWEB-0227             
1 48792U 21045AB  26182.43182804  .00000058  00000+0  12015-3 0  9995
2 48792  87.9000 256.3514 0002027 102.1174 258.0184 13.15548163246253
ONEWEB-0226             
1 48793U 21045AC  26182.65365795  .00000202  00000+0  50213-3 0  9995
2 48793  87.9001 256.3115 0001766 102.7060 257.4268 13.15547355246259
ONEWEB-0224             
1 48794U 21045AD  26182.92145508 -.00000120  00000+0 -35157-3 0  9995
2 48794  87.8997 256.2920 0002830 110.1559 249.9876 13.15547572246213
ONEWEB-0233             
1 48795U 21045AE  26182.92606478 -.00000244  00000+0 -68323-3 0  9992
2 48795  87.8996 256.2984 0002055 108.3398 251.7956 13.15548135246230
ONEWEB-0190             
1 48796U 21045AF  26182.91352861  .00000038  00000+0  67747-4 0  9995
2 48796  87.9003 256.2635 0001799 119.8690 240.2619 13.15548035246306
